$$SOE
2461295.500000000, A.D. 2026-Sep-12 00:00:00.0000, -2.202204492038311E+06, 9.475427132376544E+07, 1.166793526000211E+07,
2461302.500000000, A.D. 2026-Sep-19 00:00:00.0000, -2.789889751764714E+07, 7.811477704556932E+07, 1.276140498738422E+07,
2461309.500000000, A.D. 2026-Sep-26 00:00:00.0000, -5.120080127186643E+07, 5.518686001910151E+07, 1.280961178962705E+07,
2461316.500000000, A.D. 2026-Oct-03 00:00:00.0000, -6.899053886579202E+07, 2.647156479000325E+07, 1.149728100952432E+07,
2461323.500000000, A.D. 2026-Oct-10 00:00:00.0000, -7.903012414152828E+07, -5.262451021442698E+06, 8.887966965706483E+06,
2461330.500000000, A.D. 2026-Oct-17 00:00:00.0000, -8.162972028718802E+07, -3.663963139053350E+07, 5.425249721317288E+06,
2461337.500000000, A.D. 2026-Oct-24 00:00:00.0000, -7.871117425902079E+07, -6.567207128106913E+07, 1.579890448551055E+06,
2461344.500000000, A.D. 2026-Oct-31 00:00:00.0000, -7.219393032139589E+07, -9.179837053389856E+07, -2.349303603519831E+06,
2461351.500000000, A.D. 2026-Nov-07 00:00:00.0000, -6.343613996830021E+07, -1.151425957524719E+08, -6.213636249186747E+06,
2461358.500000000, A.D. 2026-Nov-14 00:00:00.0000, -5.330094634821252E+07, -1.360347654965651E+08, -9.948832236267537E+06,
2461365.500000000, A.D. 2026-Nov-21 00:00:00.0000, -4.232583001560258E+07, -1.548203095262613E+08, -1.353170564520647E+07,
2461372.500000000, A.D. 2026-Nov-28 00:00:00.0000, -3.084929535535435E+07, -1.718029969958411E+08, -1.695802927376130E+07,
2461379.500000000, A.D. 2026-Dec-05 00:00:00.0000, -1.908908365592444E+07, -1.872356003173430E+08, -2.023198825990468E+07,
2461386.500000000, A.D. 2026-Dec-12 00:00:00.0000, -7.188414661336585E+06, -2.013249832005506E+08, -2.336122130157460E+07,
2461393.500000000, A.D. 2026-Dec-19 00:00:00.0000, 4.756590166054795E+06, -2.142402104243832E+08, -2.635449271353731E+07,
2461400.500000000, A.D. 2026-Dec-26 00:00:00.0000, 1.668032774716141E+07, -2.261201667446257E+08, -2.922061179880919E+07,
2461407.500000000, A.D. 2027-Jan-02 00:00:00.0000, 2.853744164855337E+07, -2.370798419938443E+08, -3.196795169483893E+07,
2461414.500000000, A.D. 2027-Jan-09 00:00:00.0000, 4.029629679790904E+07, -2.472152818574605E+08, -3.460425900345556E+07,
2461421.500000000, A.D. 2027-Jan-16 00:00:00.0000, 5.193473374597478E+07, -2.566074252751276E+08, -3.713660406408928E+07,
2461428.500000000, A.D. 2027-Jan-23 00:00:00.0000, 6.343724441188369E+07, -2.653250700338949E+08, -3.957139756140801E+07,
2461435.500000000, A.D. 2027-Jan-30 00:00:00.0000, 7.479305547834347E+07, -2.734271722023844E+08, -4.191443630408087E+07,
2461442.500000000, A.D. 2027-Feb-06 00:00:00.0000, 8.599480454931661E+07, -2.809646400766137E+08, -4.417095957446469E+07,
2461449.500000000, A.D. 2027-Feb-13 00:00:00.0000, 9.703761073623955E+07, -2.879817433729709E+08, -4.634570674419791E+07,
2461456.500000000, A.D. 2027-Feb-20 00:00:00.0000, 1.079184104479674E+08, -2.945172296735579E+08, -4.844297169647285E+07,
2461463.500000000, A.D. 2027-Feb-27 00:00:00.0000, 1.186354768164897E+08, -3.006052193771232E+08, -5.046665263842337E+07,
2461470.500000000, A.D. 2027-Mar-06 00:00:00.0000, 1.291880705173126E+08, -3.062759281172414E+08, -5.242029688965981E+07,
2461477.500000000, A.D. 2027-Mar-13 00:00:00.0000, 1.395761829488538E+08, -3.115562528529173E+08, -5.430714042670882E+07,
2461484.500000000, A.D. 2027-Mar-20 00:00:00.0000, 1.498003448825599E+08, -3.164702514162078E+08, -5.613014252895083E+07,
2461491.500000000, A.D. 2027-Mar-27 00:00:00.0000, 1.598614828060926E+08, -3.210395381375982E+08, -5.789201607966436E+07,
2461498.500000000, A.D. 2027-Apr-03 00:00:00.0000, 1.697608104455375E+08, -3.252836125546628E+08, -5.959525405304517E+07,
2461505.500000000, A.D. 2027-Apr-10 00:00:00.0000, 1.794997464238855E+08, -3.292201343087525E+08, -6.124215267304133E+07,
2461512.500000000, A.D. 2027-Apr-17 00:00:00.0000, 1.890798514910209E+08, -3.328651544837059E+08, -6.283483168477188E+07,
2461519.500000000, A.D. 2027-Apr-24 00:00:00.0000, 1.985027805948635E+08, -3.362333114994029E+08, -6.437525213979022E+07,
2461526.500000000, A.D. 2027-May-01 00:00:00.0000, 2.077702465488410E+08, -3.393379979147143E+08, -6.586523206211513E+07,
2461533.500000000, A.D. 2027-May-08 00:00:00.0000, 2.168839929631921E+08, -3.421915024885675E+08, -6.730646025864434E+07,
2461540.500000000, A.D. 2027-May-15 00:00:00.0000, 2.258457729567555E+08, -3.448051306390445E+08, -6.870050831285578E+07,
2461547.500000000, A.D. 2027-May-22 00:00:00.0000, 2.346573305793431E+08, -3.471893091949425E+08, -7.004884104626624E+07,
2461554.500000000, A.D. 2027-May-29 00:00:00.0000, 2.433203871542137E+08, -3.493536795887314E+08, -7.135282605954358E+07,
2461561.500000000, A.D. 2027-Jun-05 00:00:00.0000, 2.518366325492677E+08, -3.513071785510389E+08, -7.261374233630639E+07,
2461568.500000000, A.D. 2027-Jun-12 00:00:00.0000, 2.602077186947933E+08, -3.530581076777320E+08, -7.383278782559584E+07,
2461575.500000000, A.D. 2027-Jun-19 00:00:00.0000, 2.684352544940521E+08, -3.546141942944345E+08, -7.501108616514619E+07,
2461582.500000000, A.D. 2027-Jun-26 00:00:00.0000, 2.765208019993729E+08, -3.559826451172463E+08, -7.614969269214576E+07,
2461589.500000000, A.D. 2027-Jul-03 00:00:00.0000, 2.844658736678468E+08, -3.571701937343516E+08, -7.724959983870679E+07,
2461596.500000000, A.D. 2027-Jul-10 00:00:00.0000, 2.922719304835061E+08, -3.581831427658696E+08, -7.831174198856552E+07,
2461603.500000000, A.D. 2027-Jul-17 00:00:00.0000, 2.999403807851043E+08, -3.590274014696531E+08, -7.933699986514221E+07,
2461610.500000000, A.D. 2027-Jul-24 00:00:00.0000, 3.074725798003233E+08, -3.597085194715567E+08, -8.032620452541935E+07,
2461617.500000000, A.D. 2027-Jul-31 00:00:00.0000, 3.148698301754243E+08, -3.602317169075497E+08, -8.128014102595650E+07,
2461624.500000000, A.D. 2027-Aug-07 00:00:00.0000, 3.221333832029222E+08, -3.606019102724919E+08, -8.219955169033134E+07,
2461631.500000000, A.D. 2027-Aug-14 00:00:00.0000, 3.292644383686746E+08, -3.608237346110802E+08, -8.308513882414073E+07,
2461638.500000000, A.D. 2027-Aug-21 00:00:00.0000, 3.362641417742707E+08, -3.609015657419052E+08, -8.393756724093755E+07,
2461645.500000000, A.D. 2027-Aug-28 00:00:00.0000, 3.431335868170916E+08, -3.608395415923213E+08, -8.475746684349428E+07,
2461652.500000000, A.D. 2027-Sep-04 00:00:00.0000, 3.498738159091089E+08, -3.606415803858565E+08, -8.554543497267441E+07,
2461659.500000000, A.D. 2027-Sep-11 00:00:00.0000, 3.564858218087766E+08, -3.603113965557597E+08, -8.630203847225390E+07,
2461666.500000000, A.D. 2027-Sep-18 00:00:00.0000, 3.629705486745890E+08, -3.598525152192514E+08, -8.702781555463679E+07,
2461673.500000000, A.D. 2027-Sep-25 00:00:00.0000, 3.693288930493635E+08, -3.592682854505432E+08, -8.772327751207033E+07,
2461680.500000000, A.D. 2027-Oct-02 00:00:00.0000, 3.755617048344481E+08, -3.585618924650488E+08, -8.838891029323307E+07,
2461687.500000000, A.D. 2027-Oct-09 00:00:00.0000, 3.816697882636446E+08, -3.577363688417021E+08, -8.902517596109547E+07,
2461694.500000000, A.D. 2027-Oct-16 00:00:00.0000, 3.876539029299780E+08, -3.567946049454121E+08, -8.963251405423324E+07,
2461701.500000000, A.D. 2027-Oct-23 00:00:00.0000, 3.935147651176375E+08, -3.557393586493971E+08, -9.021134288648660E+07,
2461708.500000000, A.D. 2027-Oct-30 00:00:00.0000, 3.992530498086643E+08, -3.545732638303856E+08, -9.076206077903412E+07,
2461715.500000000, A.D. 2027-Nov-06 00:00:00.0000, 4.048693921973523E+08, -3.532988365832294E+08, -9.128504703468890E+07,
2461722.500000000, A.D. 2027-Nov-13 00:00:00.0000, 4.103643867233655E+08, -3.519184812976922E+08, -9.178066264966486E+07,
2461729.500000000, A.D. 2027-Nov-20 00:00:00.0000, 4.157385865218692E+08, -3.504344988414567E+08, -9.224925121414132E+07,
2461736.500000000, A.D. 2027-Nov-27 00:00:00.0000, 4.209925049058809E+08, -3.488490939363381E+08, -9.269113991354762E+07,
2461743.500000000, A.D. 2027-Dec-04 00:00:00.0000, 4.261266168557636E+08, -3.471643808600850E+08, -9.310664037557317E+07,
2461750.500000000, A.D. 2027-Dec-11 00:00:00.0000, 4.311413599640037E+08, -3.453823884789377E+08, -9.349604939585792E+07,
2461757.500000000, A.D. 2027-Dec-18 00:00:00.0000, 4.360371351095328E+08, -3.435050649865545E+08, -9.385964959948204E+07,
2461764.500000000, A.D. 2027-Dec-25 00:00:00.0000, 4.408143070136986E+08, -3.415342823842649E+08, -9.419771005628249E+07,
2461771.500000000, A.D. 2028-Jan-01 00:00:00.0000, 4.454732047199866E+08, -3.394718407180267E+08, -9.451048685629082E+07,
$$EOE